#aV2008  8 13  0  0   .00000000      96 DD+AD WGS84 FIT  NGA
## 1492 259200.00000000   900.00000000 54691  .0000000000000
+   31     2  3  4  5  6  7  8  9 10 11 12 13 14 15 16 17 18
+         19 20 21 22 23 24 25 26 27 28 29 30 31 32  0  0  0
+          0  0  0  0  0  0  0  0  0  0  0  0  0  0  0  0  0
+          0  0  0  0  0  0  0  0  0  0  0  0  0  0  0  0  0
+          0  0  0  0  0  0  0  0  0  0  0  0  0  0  0  0  0
++         0  0  0  0  0  0  0  0  0  0  0  0  0  0  0  0  0
++         0  0  0  0  0  0  0  0  0  0  0  0  0  0  0  0  0
++         0  0  0  0  0  0  0  0  0  0  0  0  0  0  0  0  0
++         0  0  0  0  0  0  0  0  0  0  0  0  0  0  0  0  0
++         0  0  0  0  0  0  0  0  0  0  0  0  0  0  0  0  0
%c cc cc ccc ccc cccc cccc cccc cccc ccccc ccccc ccccc ccccc
%c cc cc ccc ccc cccc cccc cccc cccc ccccc ccccc ccccc ccccc
%f  0.0000000  0.000000000  0.00000000000  0.000000000000000
%f  0.0000000  0.000000000  0.00000000000  0.000000000000000
%i    0    0    0    0      0      0      0      0         0
%i    0    0    0    0      0      0      0      0         0
/*      NGA, ST. LOUIS,MO.                                  
/*   EPHEMERIS COMPUTED FROM  3 DAYS OF DATA                
/* CCCCCCCCCCCCCCCCCCCCCCCCCCCCCCCCCCCCCCCCCCCCCCCCCCCCCCCCC
/* CCCCCCCCCCCCCCCCCCCCCCCCCCCCCCCCCCCCCCCCCCCCCCCCCCCCCCCCC
*  2008  8 13 19 45   .00000000                                                 
P  2 -22828.082053  13155.463682    660.934929    195.126388                    
V  2  -2690.866632  -2766.533916 -31566.232033      -.027429                    
P  3  11805.331633 -15847.171197  17312.050204    269.184748                    
V  3   4281.205470  22496.020848  17758.894611       .052214                    
P  4 -24376.819530   4564.378640 -10095.296568   -141.697194                    
V  4   9863.032854  -8280.207410 -27475.192761      -.104249                    
P  5   7415.340251  18318.163710 -18095.551793    618.406462                    
V  5 -20831.172880  -8434.538095 -17214.995645     -2.800809                    
P  6  14341.659051 -11136.731196  19580.041624    166.913906                    
V  6   1784.896919  24523.631487  12757.157997       .011387                    
P  7  -8308.954234 -12713.342087  21761.668925      8.074518                    
V  7  24331.906004 -13226.717747   1473.734503       .040614                    
P  8 -19610.226746  -3748.195272  17677.812659   -165.727816                    
V  8  19815.994853 -10425.819733  19207.641849      -.014239                    
P  9  -7768.998432  18649.509656 -17814.294439      9.893113                    
V  9 -19139.295013   9639.245286  19269.039808       .017491                    
P 10 -15811.840431   6528.756632  20265.082017     -3.823806                    
V 10 -21256.636320 -14902.056237 -11386.682964      -.003144                    
P 11   3473.367987 -20370.364150 -16672.776833     21.712937                    
V 11  18389.824719 -11141.771342  17955.070704      -.006377                    
P 12   1577.881746  17312.611146 -20026.748516   -354.614063                    
V 12 -22267.813292 -12609.555142 -12507.253217       .011124                    
P 13  -6266.127722 -22603.363489  12346.280481    267.513068                    
V 13   2672.004971 -15654.963433 -27034.585390       .013544                    
P 14  13924.824156   6062.565512 -21701.085945   -232.556687                    
V 14  -1998.653288  27635.012164   6299.427814       .045330                    
P 15  -7423.876192  23464.023794   9997.318159   -159.405273                    
V 15  -2387.468118 -12711.914957  28137.765127      -.064651                    
P 16  19732.686849  -1942.580068  17835.272840    112.341732                    
V 16  18100.616781  13315.668800 -18437.470985      -.018759                    
P 17 -14722.946804  -5675.949238 -21341.840026     38.946692                    
V 17   1609.072038 -27138.983734   5928.581968      -.001032                    
P 18  18681.981251  18082.735136   6513.773350   -145.384784                    
V 18  -8153.742576  -2099.600717  29755.909373       .041953                    
P 19   8573.215615 -23451.633547   8832.521576     34.656480                    
V 19   1699.876142  11392.609729  29060.025109       .003677                    
P 20  -4148.042405 -18300.754869 -18924.825450    107.549028                    
V 20  21292.390300  10804.936988 -15174.112321      -.010435                    
P 21  14268.065638   9723.914747  20523.188612     54.566998                    
V 21 -22428.129610  12278.851781   9256.298626      -.013866                    
P 22  23575.018667  10589.298199  -6108.838202    211.321403                    
V 22   4823.643985   7091.110083  30054.224247      -.002194                    
P 23   -271.420498 -26358.296664   1652.962409    368.842763                    
V 23   2775.033351  -2100.907203 -32072.750655       .016576                    
P 24  -1780.842308  17033.413802  20530.586247    116.847264                    
V 24 -23552.895576  10231.733508 -10344.968964       .029061                    
P 25  -1363.835106 -16622.382589  21065.248434   -221.927951                    
V 25  21875.337844 -13846.150214  -9500.176100      -.181492                    
P 26 -10176.189023  20026.133062  13238.040708    309.276785                    
V 26   -567.917920 -17889.301332  26190.843893       .061889                    
P 27 -11489.201227 -10702.998081  22114.162415    209.876525                    
V 27  22332.552254 -14147.547129   4785.317673       .027762                    
P 28 -23531.183600 -11735.917145  -4463.226182    -21.811461                    
V 28  -3776.633523  -5363.916462  30953.900735      -.002313                    
P 29   5396.543776  24295.290742   9437.271826    -39.963577                    
V 29  -3107.947077  11671.469505 -28586.613395       .006942                    
P 30  15190.412391  18442.837901 -12053.592884     90.990341                    
V 30 -14070.645440  -5072.952587 -26170.210403       .020471                    
P 31  24383.303988  -7386.324615  -7506.674179    -25.068762                    
V 31  -7447.883594   6746.074156 -29917.703191      -.000515                    
P 32   3966.722261 -15105.804359 -21079.525945    313.095467                    
V 32  22603.628254  16068.423237  -6941.836756       .017269                    
EOF
